[{"OBJECT_NAME":"SL-14 R/B","OBJECT_ID":"1986-006B","EPOCH":"2026-03-05T14:48:30.348288","MEAN_MOTION":14.86808748,"ECCENTRICITY":0.0075131,"INCLINATION":82.5233,"RA_OF_ASC_NODE":263.5714,"ARG_OF_PERICENTER":286.5895,"MEAN_ANOMALY":72.708,"EPHEMERIS_TYPE":0,"CLASSIFICATION_TYPE":"U","NORAD_CAT_ID":16496,"ELEMENT_SET_NO":999,"REV_AT_EPOCH":14860,"BSTAR":8.7735e-5,"MEAN_MOTION_DOT":8.48e-6,"MEAN_MOTION_DDOT":0},{"OBJECT_NAME":"COSMOS 1743","OBJECT_ID":"1986-034A","EPOCH":"2026-03-05T12:46:50.165184","MEAN_MOTION":15.58209608,"ECCENTRICITY":0.000197,"INCLINATION":82.5294,"RA_OF_ASC_NODE":78.1932,"ARG_OF_PERICENTER":325.3813,"MEAN_ANOMALY":34.7314,"EPHEMERIS_TYPE":0,"CLASSIFICATION_TYPE":"U","NORAD_CAT_ID":16719,"ELEMENT_SET_NO":999,"REV_AT_EPOCH":17960,"BSTAR":0.00053858,"MEAN_MOTION_DOT":0.00040818,"MEAN_MOTION_DDOT":0},{"OBJECT_NAME":"SL-14 R/B","OBJECT_ID":"1986-046B","EPOCH":"2026-03-05T13:32:05.540928","MEAN_MOTION":14.85585893,"ECCENTRICITY":0.0021742,"INCLINATION":82.4782,"RA_OF_ASC_NODE":84.0813,"ARG_OF_PERICENTER":239.7797,"MEAN_ANOMALY":120.1266,"EPHEMERIS_TYPE":0,"CLASSIFICATION_TYPE":"U","NORAD_CAT_ID":16792,"ELEMENT_SET_NO":999,"REV_AT_EPOCH":12579,"BSTAR":7.1559e-5,"MEAN_MOTION_DOT":6.45e-6,"MEAN_MOTION_DDOT":0},{"OBJECT_NAME":"SL-14 R/B","OBJECT_ID":"1986-055B","EPOCH":"2026-03-05T16:56:40.934112","MEAN_MOTION":14.8563874,"ECCENTRICITY":0.001853,"INCLINATION":82.5209,"RA_OF_ASC_NODE":130.4184,"ARG_OF_PERICENTER":350.0678,"MEAN_ANOMALY":133.4923,"EPHEMERIS_TYPE":0,"CLASSIFICATION_TYPE":"U","NORAD_CAT_ID":16882,"ELEMENT_SET_NO":999,"REV_AT_EPOCH":11877,"BSTAR":7.0193e-5,"MEAN_MOTION_DOT":6.34e-6,"MEAN_MOTION_DDOT":0},{"OBJECT_NAME":"AJISAI (EGS)","OBJECT_ID":"1986-061A","EPOCH":"2026-03-05T20:12:52.999776","MEAN_MOTION":12.44515611,"ECCENTRICITY":0.001126,"INCLINATION":50.008,"RA_OF_ASC_NODE":105.179,"ARG_OF_PERICENTER":277.1534,"MEAN_ANOMALY":69.3354,"EPHEMERIS_TYPE":0,"CLASSIFICATION_TYPE":"U","NORAD_CAT_ID":16908,"ELEMENT_SET_NO":999,"REV_AT_EPOCH":46751,"BSTAR":0.00014666,"MEAN_MOTION_DOT":-7.7e-7,"MEAN_MOTION_DDOT":0},{"OBJECT_NAME":"COSMOS 1812","OBJECT_ID":"1987-003A","EPOCH":"2026-03-05T21:17:53.851776","MEAN_MOTION":16.42967947,"ECCENTRICITY":0.001071,"INCLINATION":82.4638,"RA_OF_ASC_NODE":199.8837,"ARG_OF_PERICENTER":275.6163,"MEAN_ANOMALY":84.3916,"EPHEMERIS_TYPE":0,"CLASSIFICATION_TYPE":"U","NORAD_CAT_ID":17295,"ELEMENT_SET_NO":999,"REV_AT_EPOCH":14387,"BSTAR":0.00027855,"MEAN_MOTION_DOT":0.07088221,"MEAN_MOTION_DDOT":-1.2681e-6},{"OBJECT_NAME":"SL-14 R/B","OBJECT_ID":"1987-024B","EPOCH":"2026-03-05T14:22:21.549792","MEAN_MOTION":14.86127704,"ECCENTRICITY":0.0016679,"INCLINATION":82.525,"RA_OF_ASC_NODE":96.6097,"ARG_OF_PERICENTER":274.7491,"MEAN_ANOMALY":85.182,"EPHEMERIS_TYPE":0,"CLASSIFICATION_TYPE":"U","NORAD_CAT_ID":17567,"ELEMENT_SET_NO":999,"REV_AT_EPOCH":8752,"BSTAR":6.726e-5,"MEAN_MOTION_DOT":6.15e-6,"MEAN_MOTION_DDOT":0},{"OBJECT_NAME":"COSMOS 1833","OBJECT_ID":"1987-027A","EPOCH":"2026-03-05T18:06:26.991648","MEAN_MOTION":14.13055727,"ECCENTRICITY":0.0024456,"INCLINATION":70.9231,"RA_OF_ASC_NODE":334.2889,"ARG_OF_PERICENTER":220.0072,"MEAN_ANOMALY":139.9248,"EPHEMERIS_TYPE":0,"CLASSIFICATION_TYPE":"U","NORAD_CAT_ID":17589,"ELEMENT_SET_NO":999,"REV_AT_EPOCH":976,"BSTAR":-4.7236e-5,"MEAN_MOTION_DOT":-1.37e-6,"MEAN_MOTION_DDOT":0},{"OBJECT_NAME":"SL-16 R/B","OBJECT_ID":"1987-027B","EPOCH":"2026-03-05T17:44:57.401664","MEAN_MOTION":14.17165916,"ECCENTRICITY":0.0003603,"INCLINATION":71.0014,"RA_OF_ASC_NODE":284.8196,"ARG_OF_PERICENTER":151.3924,"MEAN_ANOMALY":208.7398,"EPHEMERIS_TYPE":0,"CLASSIFICATION_TYPE":"U","NORAD_CAT_ID":17590,"ELEMENT_SET_NO":999,"REV_AT_EPOCH":1478,"BSTAR":-4.5815e-5,"MEAN_MOTION_DOT":-1.4e-6,"MEAN_MOTION_DDOT":0},{"OBJECT_NAME":"SL-14 R/B","OBJECT_ID":"1987-038B","EPOCH":"2026-03-05T17:26:06.134496","MEAN_MOTION":14.85365418,"ECCENTRICITY":0.0019343,"INCLINATION":82.5008,"RA_OF_ASC_NODE":300.5415,"ARG_OF_PERICENTER":173.2963,"MEAN_ANOMALY":186.8516,"EPHEMERIS_TYPE":0,"CLASSIFICATION_TYPE":"U","NORAD_CAT_ID":17912,"ELEMENT_SET_NO":999,"REV_AT_EPOCH":7864,"BSTAR":6.7928e-5,"MEAN_MOTION_DOT":6.1e-6,"MEAN_MOTION_DDOT":0},{"OBJECT_NAME":"COSMOS 1844","OBJECT_ID":"1987-041A","EPOCH":"2026-03-05T08:52:08.438304","MEAN_MOTION":14.14553146,"ECCENTRICITY":0.0029763,"INCLINATION":70.8996,"RA_OF_ASC_NODE":43.2872,"ARG_OF_PERICENTER":24.3038,"MEAN_ANOMALY":335.948,"EPHEMERIS_TYPE":0,"CLASSIFICATION_TYPE":"U","NORAD_CAT_ID":17973,"ELEMENT_SET_NO":999,"REV_AT_EPOCH":297,"BSTAR":-2.2809e-5,"MEAN_MOTION_DOT":-9.2e-7,"MEAN_MOTION_DDOT":0},{"OBJECT_NAME":"SL-14 R/B","OBJECT_ID":"1987-055B","EPOCH":"2026-03-05T12:02:55.930272","MEAN_MOTION":14.85623784,"ECCENTRICITY":0.0021508,"INCLINATION":82.5029,"RA_OF_ASC_NODE":352.9768,"ARG_OF_PERICENTER":31.2603,"MEAN_ANOMALY":328.9887,"EPHEMERIS_TYPE":0,"CLASSIFICATION_TYPE":"U","NORAD_CAT_ID":18153,"ELEMENT_SET_NO":999,"REV_AT_EPOCH":6931,"BSTAR":9.1608e-5,"MEAN_MOTION_DOT":8.2e-6,"MEAN_MOTION_DDOT":0},{"OBJECT_NAME":"COSMOS 1867","OBJECT_ID":"1987-060A","EPOCH":"2026-03-05T17:43:35.727744","MEAN_MOTION":14.31502442,"ECCENTRICITY":0.0014431,"INCLINATION":65.0116,"RA_OF_ASC_NODE":317.7702,"ARG_OF_PERICENTER":278.4028,"MEAN_ANOMALY":81.5421,"EPHEMERIS_TYPE":0,"CLASSIFICATION_TYPE":"U","NORAD_CAT_ID":18187,"ELEMENT_SET_NO":999,"REV_AT_EPOCH":1937,"BSTAR":3.9946e-5,"MEAN_MOTION_DOT":6.0e-8,"MEAN_MOTION_DDOT":0},{"OBJECT_NAME":"SL-14 R/B","OBJECT_ID":"1988-001B","EPOCH":"2026-03-05T20:00:43.021728","MEAN_MOTION":14.85522565,"ECCENTRICITY":0.001667,"INCLINATION":82.5146,"RA_OF_ASC_NODE":198.9857,"ARG_OF_PERICENTER":249.4815,"MEAN_ANOMALY":110.4612,"EPHEMERIS_TYPE":0,"CLASSIFICATION_TYPE":"U","NORAD_CAT_ID":18749,"ELEMENT_SET_NO":999,"REV_AT_EPOCH":4145,"BSTAR":9.7109e-5,"MEAN_MOTION_DOT":8.64e-6,"MEAN_MOTION_DDOT":0},{"OBJECT_NAME":"COSMOS 1933","OBJECT_ID":"1988-020A","EPOCH":"2026-03-05T13:42:35.584416","MEAN_MOTION":15.17938823,"ECCENTRICITY":0.0003489,"INCLINATION":82.5096,"RA_OF_ASC_NODE":254.9878,"ARG_OF_PERICENTER":198.1021,"MEAN_ANOMALY":162.0089,"EPHEMERIS_TYPE":0,"CLASSIFICATION_TYPE":"U","NORAD_CAT_ID":18958,"ELEMENT_SET_NO":999,"REV_AT_EPOCH":4960,"BSTAR":0.00025569,"MEAN_MOTION_DOT":5.218e-5,"MEAN_MOTION_DDOT":0},{"OBJECT_NAME":"SL-3 R/B","OBJECT_ID":"1988-032B","EPOCH":"2026-03-05T18:46:35.865120","MEAN_MOTION":15.19853216,"ECCENTRICITY":0.0024204,"INCLINATION":97.5188,"RA_OF_ASC_NODE":48.0469,"ARG_OF_PERICENTER":246.1196,"MEAN_ANOMALY":113.7503,"EPHEMERIS_TYPE":0,"CLASSIFICATION_TYPE":"U","NORAD_CAT_ID":19046,"ELEMENT_SET_NO":999,"REV_AT_EPOCH":5151,"BSTAR":0.00032448,"MEAN_MOTION_DOT":6.943e-5,"MEAN_MOTION_DDOT":0},{"OBJECT_NAME":"SL-16 R/B","OBJECT_ID":"1988-039B","EPOCH":"2026-03-05T11:17:48.077376","MEAN_MOTION":14.19615722,"ECCENTRICITY":0.0022514,"INCLINATION":71.013,"RA_OF_ASC_NODE":77.4694,"ARG_OF_PERICENTER":340.5401,"MEAN_ANOMALY":19.4862,"EPHEMERIS_TYPE":0,"CLASSIFICATION_TYPE":"U","NORAD_CAT_ID":19120,"ELEMENT_SET_NO":999,"REV_AT_EPOCH":95778,"BSTAR":-1.2085e-5,"MEAN_MOTION_DOT":-7.4e-7,"MEAN_MOTION_DDOT":0}]
